{"type": "FeatureCollection", "features": [ {"type": "Feature", "properties": {"norad_id": 30546, "name": "FENGYUN 1C DEB", "group": "fengyun-1c-debris", "lat": -5.397689001653378, "lon": -139.58673280589312, "alt_km": 641.9298568408885, "timestamp": "2025-12-27T17:24:57.682454+00:00", "meta": {"OBJECT_NAME": "FENGYUN 1C DEB", "OBJECT_ID": "1999-025AKL", "EPOCH": "2025-12-27T01:58:25.345056", "MEAN_MOTION": 14.87369978, "ECCENTRICITY": 0.00929225, "INCLINATION": 98.9077, "RA_OF_ASC_NODE": 218.8427, "ARG_OF_PERICENTER": 116.8438, "MEAN_ANOMALY": 35.513, "EPHEMERIS_TYPE": 0, "CLASSIFICATION_TYPE": "U", "NORAD_CAT_ID": 30546, "ELEMENT_SET_NO": 999, "REV_AT_EPOCH": 670, "BSTAR": 0.00086716866, "MEAN_MOTION_DOT": 8.419e-05, "MEAN_MOTION_DDOT": 0}, "tle": {"line1": "1 30546U 99025AKL 25361.08223779  .00008419  00000+0  86717-3 0  9991", "line2": "2 30546  98.9077 218.8427 0092922 116.8438  35.5130 14.87369978  6709"}}, "geometry": {"type": "Point", "coordinates": [-139.58673280589312, -5.397689001653378]}}, {"type": "Feature", "properties": {"norad_id": 30547, "name": "FENGYUN 1C DEB", "group": "fengyun-1c-debris", "lat": -73.82645689981932, "lon": -122.03114803775874, "alt_km": 796.5482990174723, "timestamp": "2025-12-27T17:24:57.682464+00:00", "meta": {"OBJECT_NAME": "FENGYUN 1C DEB", "OBJECT_ID": "1999-025AKM", "EPOCH": "2025-12-27T03:19:29.034336", "MEAN_MOTION": 14.37774844, "ECCENTRICITY": 0.00957532, "INCLINATION": 98.9016, "RA_OF_ASC_NODE": 204.6511, "ARG_OF_PERICENTER": 174.793, "MEAN_ANOMALY": 310.4767, "EPHEMERIS_TYPE": 0, "CLASSIFICATION_TYPE": "U", "NORAD_CAT_ID": 30547, "ELEMENT_SET_NO": 999, "REV_AT_EPOCH": 98929, "BSTAR": 0.00028774557, "MEAN_MOTION_DOT": 8.65e-06, "MEAN_MOTION_DDOT": 0}, "tle": {"line1": "1 30547U 99025AKM 25361.13853049  .00000865  00000+0  28775-3 0  9994", "line2": "2 30547  98.9016 204.6511 0095753 174.7930 310.4767 14.37774844989297"}}, "geometry": {"type": "Point", "coordinates": [-122.03114803775874, -73.82645689981932]}}, {"type": "Feature", "properties": {"norad_id": 30548, "name": "FENGYUN 1C DEB", "group": "fengyun-1c-debris", "lat": -42.64160405265229, "lon": -90.17949950650097, "alt_km": 763.492366548332, "timestamp": "2025-12-27T17:24:57.682474+00:00", "meta": {"OBJECT_NAME": "FENGYUN 1C DEB", "OBJECT_ID": "1999-025AKN", "EPOCH": "2025-12-25T12:21:47.176704", "MEAN_MOTION": 14.26999076, "ECCENTRICITY": 0.0067663, "INCLINATION": 99.6818, "RA_OF_ASC_NODE": 258.3315, "ARG_OF_PERICENTER": 299.9173, "MEAN_ANOMALY": 186.65, "EPHEMERIS_TYPE": 0, "CLASSIFICATION_TYPE": "U", "NORAD_CAT_ID": 30548, "ELEMENT_SET_NO": 999, "REV_AT_EPOCH": 14277, "BSTAR": 0.0020682, "MEAN_MOTION_DOT": 5.106e-05, "MEAN_MOTION_DDOT": 0}, "tle": {"line1": "1 30548U 99025AKN 25359.51512936  .00005106  00000+0  20682-2 0  9992", "line2": "2 30548  99.6818 258.3315 0067663 299.9173 186.6500 14.26999076142778"}}, "geometry": {"type": "Point", "coordinates": [-90.17949950650097, -42.64160405265229]}}, {"type": "Feature", "properties": {"norad_id": 30549, "name": "FENGYUN 1C DEB", "group": "fengyun-1c-debris", "lat": 63.35053005415098, "lon": 103.77766348307088, "alt_km": 1072.8237737672725, "timestamp": "2025-12-27T17:24:57.682484+00:00", "meta": {"OBJECT_NAME": "FENGYUN 1C DEB", "OBJECT_ID": "1999-025AKP", "EPOCH": "2025-12-27T06:47:26.765952", "MEAN_MOTION": 13.98845849, "ECCENTRICITY": 0.02887001, "INCLINATION": 98.4792, "RA_OF_ASC_NODE": 120.6599, "ARG_OF_PERICENTER": 216.3835, "MEAN_ANOMALY": 141.7399, "EPHEMERIS_TYPE": 0, "CLASSIFICATION_TYPE": "U", "NORAD_CAT_ID": 30549, "ELEMENT_SET_NO": 999, "REV_AT_EPOCH": 95497, "BSTAR": 0.0029145674, "MEAN_MOTION_DOT": 5.968e-05, "MEAN_MOTION_DDOT": 0}, "tle": {"line1": "1 30549U 99025AKP 25361.28294868  .00005968  00000+0  29146-2 0  9991", "line2": "2 30549  98.4792 120.6599 0288700 216.3835 141.7399 13.98845849954974"}}, "geometry": {"type": "Point", "coordinates": [103.77766348307088, 63.35053005415098]}}, {"type": "Feature", "properties": {"norad_id": 30550, "name": "FENGYUN 1C DEB", "group": "fengyun-1c-debris", "lat": 63.693701051389226, "lon": -121.88278194689225, "alt_km": 972.1258081343185, "timestamp": "2025-12-27T17:24:57.682494+00:00", "meta": {"OBJECT_NAME": "FENGYUN 1C DEB", "OBJECT_ID": "1999-025AKQ", "EPOCH": "2025-12-25T15:35:41.474112", "MEAN_MOTION": 14.02503029, "ECCENTRICITY": 0.013086, "INCLINATION": 99.0535, "RA_OF_ASC_NODE": 254.8694, "ARG_OF_PERICENTER": 261.8153, "MEAN_ANOMALY": 127.6685, "EPHEMERIS_TYPE": 0, "CLASSIFICATION_TYPE": "U", "NORAD_CAT_ID": 30550, "ELEMENT_SET_NO": 999, "REV_AT_EPOCH": 95576, "BSTAR": 0.0028631, "MEAN_MOTION_DOT": 4.707e-05, "MEAN_MOTION_DDOT": 0}, "tle": {"line1": "1 30550U 99025AKQ 25359.64978558  .00004707  00000+0  28631-2 0  9993", "line2": "2 30550  99.0535 254.8694 0130860 261.8153 127.6685 14.02503029955761"}}, "geometry": {"type": "Point", "coordinates": [-121.88278194689225, 63.693701051389226]}}, {"type": "Feature", "properties": {"norad_id": 30552, "name": "FENGYUN 1C DEB", "group": "fengyun-1c-debris", "lat": 21.628453395263413, "lon": 130.70497698395218, "alt_km": 719.3739735655045, "timestamp": "2025-12-27T17:24:57.682504+00:00", "meta": {"OBJECT_NAME": "FENGYUN 1C DEB", "OBJECT_ID": "1999-025AKS", "EPOCH": "2025-12-27T04:06:47.096352", "MEAN_MOTION": 14.55127909, "ECCENTRICITY": 0.00152723, "INCLINATION": 98.8341, "RA_OF_ASC_NODE": 133.6547, "ARG_OF_PERICENTER": 212.2837, "MEAN_ANOMALY": 147.7425, "EPHEMERIS_TYPE": 0, "CLASSIFICATION_TYPE": "U", "NORAD_CAT_ID": 30552, "ELEMENT_SET_NO": 999, "REV_AT_EPOCH": 97862, "BSTAR": 0.0037605549, "MEAN_MOTION_DOT": 0.0001625, "MEAN_MOTION_DDOT": 0}, "tle": {"line1": "1 30552U 99025AKS 25361.17137843  .00016250  00000+0  37606-2 0  9998", "line2": "2 30552  98.8341 133.6547 0015272 212.2837 147.7425 14.55127909978626"}}, "geometry": {"type": "Point", "coordinates": [130.70497698395218, 21.628453395263413]}}, {"type": "Feature", "properties": {"norad_id": 30553, "name": "FENGYUN 1C DEB", "group": "fengyun-1c-debris", "lat": -51.21842311359955, "lon": 109.99483671052326, "alt_km": 671.190893594975, "timestamp": "2025-12-27T17:24:57.682515+00:00", "meta": {"OBJECT_NAME": "FENGYUN 1C DEB", "OBJECT_ID": "1999-025AKT", "EPOCH": "2025-12-27T06:14:23.728704", "MEAN_MOTION": 14.72854082, "ECCENTRICITY": 0.00190034, "INCLINATION": 99.1276, "RA_OF_ASC_NODE": 97.9295, "ARG_OF_PERICENTER": 107.3457, "MEAN_ANOMALY": 252.9828, "EPHEMERIS_TYPE": 0, "CLASSIFICATION_TYPE": "U", "NORAD_CAT_ID": 30553, "ELEMENT_SET_NO": 999, "REV_AT_EPOCH": 98687, "BSTAR": 0.0035473264, "MEAN_MOTION_DOT": 0.00022783, "MEAN_MOTION_DDOT": 0}, "tle": {"line1": "1 30553U 99025AKT 25361.25999686  .00022783  00000+0  35473-2 0  9997", "line2": "2 30553  99.1276  97.9295 0019003 107.3457 252.9828 14.72854082986878"}}, "geometry": {"type": "Point", "coordinates": [109.99483671052326, -51.21842311359955]}}, {"type": "Feature", "properties": {"norad_id": 30555, "name": "FENGYUN 1C DEB", "group": "fengyun-1c-debris", "lat": -7.712146269794183, "lon": -126.07972496519298, "alt_km": 802.3753944983346, "timestamp": "2025-12-27T17:24:57.682525+00:00", "meta": {"OBJECT_NAME": "FENGYUN 1C DEB", "OBJECT_ID": "1999-025AKV", "EPOCH": "2025-12-27T09:52:20.411040", "MEAN_MOTION": 14.20889069, "ECCENTRICITY": 0.0043475, "INCLINATION": 98.7561, "RA_OF_ASC_NODE": 54.8048, "ARG_OF_PERICENTER": 229.1937, "MEAN_ANOMALY": 151.9082, "EPHEMERIS_TYPE": 0, "CLASSIFICATION_TYPE": "U", "NORAD_CAT_ID": 30555, "ELEMENT_SET_NO": 999, "REV_AT_EPOCH": 97144, "BSTAR": 0.0014353, "MEAN_MOTION_DOT": 3.091e-05, "MEAN_MOTION_DDOT": 0}, "tle": {"line1": "1 30555U 99025AKV 25361.41134735  .00003091  00000+0  14353-2 0  9998", "line2": "2 30555  98.7561  54.8048 0043475 229.1937 151.9082 14.20889069971449"}}, "geometry": {"type": "Point", "coordinates": [-126.07972496519298, -7.712146269794183]}}, {"type": "Feature", "properties": {"norad_id": 30556, "name": "FENGYUN 1C DEB", "group": "fengyun-1c-debris", "lat": 4.69309283295113, "lon": -6.313206049825336, "alt_km": 940.5088803987055, "timestamp": "2025-12-27T17:24:57.682535+00:00", "meta": {"OBJECT_NAME": "FENGYUN 1C DEB", "OBJECT_ID": "1999-025AKW", "EPOCH": "2025-12-27T11:16:25.298400", "MEAN_MOTION": 14.01376589, "ECCENTRICITY": 0.0068908, "INCLINATION": 98.7808, "RA_OF_ASC_NODE": 354.1676, "ARG_OF_PERICENTER": 196.157, "MEAN_ANOMALY": 318.1169, "EPHEMERIS_TYPE": 0, "CLASSIFICATION_TYPE": "U", "NORAD_CAT_ID": 30556, "ELEMENT_SET_NO": 999, "REV_AT_EPOCH": 96463, "BSTAR": 0.0002435, "MEAN_MOTION_DOT": 3.33e-06, "MEAN_MOTION_DDOT": 0}, "tle": {"line1": "1 30556U 99025AKW 25361.46973725  .00000333  00000+0  24350-3 0  9999", "line2": "2 30556  98.7808 354.1676 0068908 196.1570 318.1169 14.01376589964634"}}, "geometry": {"type": "Point", "coordinates": [-6.313206049825336, 4.69309283295113]}}, {"type": "Feature", "properties": {"norad_id": 30557, "name": "FENGYUN 1C DEB", "group": "fengyun-1c-debris", "lat": -76.94804933957467, "lon": 109.41662477406366, "alt_km": 862.2799918230239, "timestamp": "2025-12-27T17:24:57.682546+00:00", "meta": {"OBJECT_NAME": "FENGYUN 1C DEB", "OBJECT_ID": "1999-025AKX", "EPOCH": "2025-12-27T04:11:00.608640", "MEAN_MOTION": 14.10866821, "ECCENTRICITY": 0.00688878, "INCLINATION": 98.9191, "RA_OF_ASC_NODE": 66.2288, "ARG_OF_PERICENTER": 192.3743, "MEAN_ANOMALY": 167.5738, "EPHEMERIS_TYPE": 0, "CLASSIFICATION_TYPE": "U", "NORAD_CAT_ID": 30557, "ELEMENT_SET_NO": 999, "REV_AT_EPOCH": 96504, "BSTAR": 0.0015395954, "MEAN_MOTION_DOT": 2.778e-05, "MEAN_MOTION_DDOT": 0}, "tle": {"line1": "1 30557U 99025AKX 25361.17431260  .00002778  00000+0  15396-2 0  9995", "line2": "2 30557  98.9191  66.2288 0068887 192.3743 167.5738 14.10866821965045"}}, "geometry": {"type": "Point", "coordinates": [109.41662477406366, -76.94804933957467]}}]}